{"type": "FeatureCollection", "features": [ {"type": "Feature", "properties": {"norad_id": 32289, "name": "YAOGAN-3", "group": "resource", "lat": 2.490342350910646, "lon": 15.42796874881317, "alt_km": 600.7828508275188, "timestamp": "2025-12-15T04:01:20.099329+00:00", "meta": {"OBJECT_NAME": "YAOGAN-3", "OBJECT_ID": "2007-055A", "EPOCH": "2025-12-14T08:40:06.827232", "MEAN_MOTION": 14.89868823, "ECCENTRICITY": 0.00013241, "INCLINATION": 97.8371, "RA_OF_ASC_NODE": 14.972, "ARG_OF_PERICENTER": 79.3413, "MEAN_ANOMALY": 280.7953, "EPHEMERIS_TYPE": 0, "CLASSIFICATION_TYPE": "U", "NORAD_CAT_ID": 32289, "ELEMENT_SET_NO": 999, "REV_AT_EPOCH": 97833, "BSTAR": 0.00028639135, "MEAN_MOTION_DOT": 2.697e-05, "MEAN_MOTION_DDOT": 0}, "tle": {"line1": "1 32289U 07055A   25348.36119013  .00002697  00000+0  28639-3 0  9991", "line2": "2 32289  97.8371  14.9720 0001324  79.3413 280.7953 14.89868823978332"}}, "geometry": {"type": "Point", "coordinates": [15.42796874881317, 2.490342350910646]}}, {"type": "Feature", "properties": {"norad_id": 32376, "name": "COSMO-SKYMED 2", "group": "resource", "lat": -34.227640490631245, "lon": -14.952580186229053, "alt_km": 629.4592247552755, "timestamp": "2025-12-15T04:01:20.099341+00:00", "meta": {"OBJECT_NAME": "COSMO-SKYMED 2", "OBJECT_ID": "2007-059A", "EPOCH": "2025-12-14T14:05:43.537344", "MEAN_MOTION": 14.82144731, "ECCENTRICITY": 0.0001392, "INCLINATION": 97.881, "RA_OF_ASC_NODE": 169.8833, "ARG_OF_PERICENTER": 83.8663, "MEAN_ANOMALY": 276.2709, "EPHEMERIS_TYPE": 0, "CLASSIFICATION_TYPE": "U", "NORAD_CAT_ID": 32376, "ELEMENT_SET_NO": 999, "REV_AT_EPOCH": 97465, "BSTAR": 9.3138e-05, "MEAN_MOTION_DOT": 6.89e-06, "MEAN_MOTION_DDOT": 0}, "tle": {"line1": "1 32376U 07059A   25348.58730946  .00000689  00000+0  93138-4 0  9996", "line2": "2 32376  97.8810 169.8833 0001392  83.8663 276.2709 14.82144731974652"}}, "geometry": {"type": "Point", "coordinates": [-14.952580186229053, -34.227640490631245]}}, {"type": "Feature", "properties": {"norad_id": 32382, "name": "RADARSAT-2", "group": "resource", "lat": 66.52620287739586, "lon": -26.622034058067264, "alt_km": 784.5051807334394, "timestamp": "2025-12-15T04:01:20.099352+00:00", "meta": {"OBJECT_NAME": "RADARSAT-2", "OBJECT_ID": "2007-061A", "EPOCH": "2025-12-14T07:33:12.665952", "MEAN_MOTION": 14.29982182, "ECCENTRICITY": 0.0001119, "INCLINATION": 98.5803, "RA_OF_ASC_NODE": 352.8822, "ARG_OF_PERICENTER": 85.6544, "MEAN_ANOMALY": 274.4766, "EPHEMERIS_TYPE": 0, "CLASSIFICATION_TYPE": "U", "NORAD_CAT_ID": 32382, "ELEMENT_SET_NO": 999, "REV_AT_EPOCH": 93953, "BSTAR": 2.7680737e-05, "MEAN_MOTION_DOT": 2.8e-07, "MEAN_MOTION_DDOT": 0}, "tle": {"line1": "1 32382U 07061A   25348.31472993  .00000028  00000+0  27681-4 0  9999", "line2": "2 32382  98.5803 352.8822 0001119  85.6544 274.4766 14.29982182939538"}}, "geometry": {"type": "Point", "coordinates": [-26.622034058067264, 66.52620287739586]}}, {"type": "Feature", "properties": {"norad_id": 32783, "name": "CARTOSAT-2A", "group": "resource", "lat": -33.76434886380886, "lon": 44.168560074105734, "alt_km": 631.8176657252534, "timestamp": "2025-12-15T04:01:20.099362+00:00", "meta": {"OBJECT_NAME": "CARTOSAT-2A", "OBJECT_ID": "2008-021A", "EPOCH": "2025-12-14T08:41:26.368800", "MEAN_MOTION": 14.78942089, "ECCENTRICITY": 0.00117287, "INCLINATION": 97.7932, "RA_OF_ASC_NODE": 38.1349, "ARG_OF_PERICENTER": 359.5706, "MEAN_ANOMALY": 0.5493, "EPHEMERIS_TYPE": 0, "CLASSIFICATION_TYPE": "U", "NORAD_CAT_ID": 32783, "ELEMENT_SET_NO": 999, "REV_AT_EPOCH": 95148, "BSTAR": 0.00019927231, "MEAN_MOTION_DOT": 1.421e-05, "MEAN_MOTION_DDOT": 0}, "tle": {"line1": "1 32783U 08021A   25348.36211075  .00001421  00000+0  19927-3 0  9999", "line2": "2 32783  97.7932  38.1349 0011728 359.5706   0.5493 14.78942089951484"}}, "geometry": {"type": "Point", "coordinates": [44.168560074105734, -33.76434886380886]}}, {"type": "Feature", "properties": {"norad_id": 33320, "name": "HUANJING 1A (HJ-1A)", "group": "resource", "lat": -49.71320217986443, "lon": 148.2364727755939, "alt_km": 638.3486635322915, "timestamp": "2025-12-15T04:01:20.099373+00:00", "meta": {"OBJECT_NAME": "HUANJING 1A (HJ-1A)", "OBJECT_ID": "2008-041A", "EPOCH": "2025-12-14T07:33:38.803680", "MEAN_MOTION": 14.83403164, "ECCENTRICITY": 0.00200469, "INCLINATION": 97.6542, "RA_OF_ASC_NODE": 336.548, "ARG_OF_PERICENTER": 29.4047, "MEAN_ANOMALY": 330.8291, "EPHEMERIS_TYPE": 0, "CLASSIFICATION_TYPE": "U", "NORAD_CAT_ID": 33320, "ELEMENT_SET_NO": 999, "REV_AT_EPOCH": 93099, "BSTAR": 0.00033944878, "MEAN_MOTION_DOT": 2.744e-05, "MEAN_MOTION_DDOT": 0}, "tle": {"line1": "1 33320U 08041A   25348.31503245  .00002744  00000+0  33945-3 0  9992", "line2": "2 33320  97.6542 336.5480 0020046  29.4047 330.8291 14.83403164930993"}}, "geometry": {"type": "Point", "coordinates": [148.2364727755939, -49.71320217986443]}}, {"type": "Feature", "properties": {"norad_id": 33321, "name": "HUANJING 1B (HJ-1B)", "group": "resource", "lat": 81.61966786011789, "lon": -84.61616409807576, "alt_km": 587.6111807400648, "timestamp": "2025-12-15T04:01:20.099384+00:00", "meta": {"OBJECT_NAME": "HUANJING 1B (HJ-1B)", "OBJECT_ID": "2008-041B", "EPOCH": "2025-12-14T08:12:05.808960", "MEAN_MOTION": 14.82829786, "ECCENTRICITY": 0.00381906, "INCLINATION": 97.6403, "RA_OF_ASC_NODE": 340.2665, "ARG_OF_PERICENTER": 70.6162, "MEAN_ANOMALY": 289.9174, "EPHEMERIS_TYPE": 0, "CLASSIFICATION_TYPE": "U", "NORAD_CAT_ID": 33321, "ELEMENT_SET_NO": 999, "REV_AT_EPOCH": 93101, "BSTAR": 0.00031514864, "MEAN_MOTION_DOT": 2.532e-05, "MEAN_MOTION_DDOT": 0}, "tle": {"line1": "1 33321U 08041B   25348.34173390  .00002532  00000+0  31515-3 0  9996", "line2": "2 33321  97.6403 340.2665 0038190  70.6162 289.9174 14.82829786931011"}}, "geometry": {"type": "Point", "coordinates": [-84.61616409807576, 81.61966786011789]}}, {"type": "Feature", "properties": {"norad_id": 33331, "name": "GEOEYE 1", "group": "resource", "lat": -80.18838086963157, "lon": 116.11810863431518, "alt_km": 683.1070365207597, "timestamp": "2025-12-15T04:01:20.099395+00:00", "meta": {"OBJECT_NAME": "GEOEYE 1", "OBJECT_ID": "2008-042A", "EPOCH": "2025-12-14T07:05:42.188352", "MEAN_MOTION": 14.64815404, "ECCENTRICITY": 0.00027287, "INCLINATION": 98.1252, "RA_OF_ASC_NODE": 59.557, "ARG_OF_PERICENTER": 268.9575, "MEAN_ANOMALY": 91.1316, "EPHEMERIS_TYPE": 0, "CLASSIFICATION_TYPE": "U", "NORAD_CAT_ID": 33331, "ELEMENT_SET_NO": 999, "REV_AT_EPOCH": 92308, "BSTAR": 0.00016511238, "MEAN_MOTION_DOT": 8.33e-06, "MEAN_MOTION_DDOT": 0}, "tle": {"line1": "1 33331U 08042A   25348.29562718  .00000833  00000+0  16511-3 0  9999", "line2": "2 33331  98.1252  59.5570 0002728 268.9575  91.1316 14.64815404923084"}}, "geometry": {"type": "Point", "coordinates": [116.11810863431518, -80.18838086963157]}}, {"type": "Feature", "properties": {"norad_id": 33396, "name": "THEOS", "group": "resource", "lat": 75.19526661154644, "lon": -97.94789158155027, "alt_km": 817.0375738245593, "timestamp": "2025-12-15T04:01:20.099405+00:00", "meta": {"OBJECT_NAME": "THEOS", "OBJECT_ID": "2008-049A", "EPOCH": "2025-12-14T07:15:05.781600", "MEAN_MOTION": 14.2009687, "ECCENTRICITY": 0.00011477, "INCLINATION": 98.5866, "RA_OF_ASC_NODE": 46.3454, "ARG_OF_PERICENTER": 96.8347, "MEAN_ANOMALY": 263.2961, "EPHEMERIS_TYPE": 0, "CLASSIFICATION_TYPE": "U", "NORAD_CAT_ID": 33396, "ELEMENT_SET_NO": 999, "REV_AT_EPOCH": 89172, "BSTAR": 0.00010092158, "MEAN_MOTION_DOT": 1.72e-06, "MEAN_MOTION_DDOT": 0}, "tle": {"line1": "1 33396U 08049A   25348.30215025  .00000172  00000+0  10092-3 0  9999", "line2": "2 33396  98.5866  46.3454 0001147  96.8347 263.2961 14.20096870891727"}}, "geometry": {"type": "Point", "coordinates": [-97.94789158155027, 75.19526661154644]}}, {"type": "Feature", "properties": {"norad_id": 33412, "name": "COSMO-SKYMED 3", "group": "resource", "lat": -33.45289020940117, "lon": 14.371159054776323, "alt_km": 549.1323670346346, "timestamp": "2025-12-15T04:01:20.099416+00:00", "meta": {"OBJECT_NAME": "COSMO-SKYMED 3", "OBJECT_ID": "2008-054A", "EPOCH": "2025-12-14T07:55:59.867328", "MEAN_MOTION": 15.05377778, "ECCENTRICITY": 0.00161302, "INCLINATION": 97.8477, "RA_OF_ASC_NODE": 198.7487, "ARG_OF_PERICENTER": 167.9396, "MEAN_ANOMALY": 192.2219, "EPHEMERIS_TYPE": 0, "CLASSIFICATION_TYPE": "U", "NORAD_CAT_ID": 33412, "ELEMENT_SET_NO": 999, "REV_AT_EPOCH": 92911, "BSTAR": 0.00038835798, "MEAN_MOTION_DOT": 5.518e-05, "MEAN_MOTION_DDOT": 0}, "tle": {"line1": "1 33412U 08054A   25348.33055402  .00005518  00000+0  38836-3 0  9993", "line2": "2 33412  97.8477 198.7487 0016130 167.9396 192.2219 15.05377778929111"}}, "geometry": {"type": "Point", "coordinates": [14.371159054776323, -33.45289020940117]}}, {"type": "Feature", "properties": {"norad_id": 33446, "name": "YAOGAN-4", "group": "resource", "lat": -3.095658677821114, "lon": -80.32576638531148, "alt_km": 617.2398451521203, "timestamp": "2025-12-15T04:01:20.099426+00:00", "meta": {"OBJECT_NAME": "YAOGAN-4", "OBJECT_ID": "2008-061A", "EPOCH": "2025-12-14T06:58:50.323872", "MEAN_MOTION": 14.82689567, "ECCENTRICITY": 0.00134687, "INCLINATION": 97.9179, "RA_OF_ASC_NODE": 278.375, "ARG_OF_PERICENTER": 317.8799, "MEAN_ANOMALY": 42.1378, "EPHEMERIS_TYPE": 0, "CLASSIFICATION_TYPE": "U", "NORAD_CAT_ID": 33446, "ELEMENT_SET_NO": 999, "REV_AT_EPOCH": 91826, "BSTAR": 0.0002615583, "MEAN_MOTION_DOT": 2.059e-05, "MEAN_MOTION_DDOT": 0}, "tle": {"line1": "1 33446U 08061A   25348.29086023  .00002059  00000+0  26156-3 0  9995", "line2": "2 33446  97.9179 278.3750 0013468 317.8799  42.1378 14.82689567918269"}}, "geometry": {"type": "Point", "coordinates": [-80.32576638531148, -3.095658677821114]}}]}